OBJECT_NAME,OBJECT_ID,EPOCH,MEAN_MOTION,ECCENTRICITY,INCLINATION,RA_OF_ASC_NODE,ARG_OF_PERICENTER,MEAN_ANOMALY,EPHEMERIS_TYPE,CLASSIFICATION_TYPE,NORAD_CAT_ID,ELEMENT_SET_NO,REV_AT_EPOCH,BSTAR,MEAN_MOTION_DOT,MEAN_MOTION_DDOT
STARLINK-6119,2023-046AK,2026-07-06T11:43:04.240992,15.27565897,.0001762,43.0035,196.5260,287.8193,72.2466,0,U,56125,999,18036,-.62114E-4,-.197E-4,0
STARLINK-6124,2023-046AL,2026-07-06T17:09:43.636032,15.27578883,.0000692,43.0005,194.7909,203.8149,156.2670,0,U,56126,999,18040,.46709E-4,.1024E-4,0
STARLINK-6104,2023-046AM,2026-07-06T12:15:26.849088,15.27585006,.000179,43.0014,199.2469,294.0502,66.0162,0,U,56127,999,18033,-.15425E-3,-.4505E-4,0
STARLINK-6122,2023-046AN,2026-07-06T17:54:09.062208,15.27557731,.0000486,42.9968,195.0181,299.8179,60.2624,0,U,56128,999,18040,.22065E-6,-.256E-5,0
STARLINK-6121,2023-046AP,2026-07-06T18:25:15.800736,15.27566944,.0001197,43.0013,143.2699,262.3598,97.7118,0,U,56129,999,18100,-.44609E-4,-.1489E-4,0
STARLINK-6117,2023-046AQ,2026-07-06T17:06:01.944000,15.27565876,.0001405,43.0009,194.7671,272.0811,87.9880,0,U,56130,999,18040,-.51684E-4,-.1683E-4,0
STARLINK-6120,2023-046AR,2026-07-06T17:17:08.165760,15.27546112,.0000748,43.0013,194.8173,280.4271,79.6496,0,U,56131,999,18040,.51403E-4,.1151E-4,0
STARLINK-6071,2023-046AS,2026-07-06T08:43:47.200800,15.27579721,.00016304,43.0023,196.4546,270.9795,89.0870,0,U,56132,999,18035,.19757427E-4,.281E-5,0
STARLINK-5566,2023-046AT,2026-07-06T11:59:29.748768,15.27584743,.0002049,43.0016,195.7514,285.8026,74.2599,0,U,56133,999,18037,-.89132E-4,-.2715E-4,0
STARLINK-5564,2023-046AU,2026-07-06T11:57:39.580128,15.27565432,.0001632,43.0017,195.7403,272.5642,87.5023,0,U,56134,999,18036,-.24018E-4,-.923E-5,0
STARLINK-5489,2023-046AW,2026-07-06T01:07:48.789408,15.27567766,.00016876,43.0023,198.3776,304.5752,55.4941,0,U,56136,999,18030,-.45456077E-4,-.1512E-4,0
STARLINK-5090,2023-046AX,2026-07-06T17:02:18.714912,15.27584625,.0001454,43.0021,194.7417,266.2460,93.8226,0,U,56137,999,18040,-.90591E-4,-.2755E-4,0
STARLINK-4774,2023-046AY,2026-07-06T01:50:23.219232,15.27548965,.0002351,43.0044,198.5897,293.6426,66.4179,0,U,56138,999,18030,-.12517081E-3,-.3702E-4,0
STARLINK-5375,2023-046BA,2026-07-06T17:52:16.406112,15.27572839,.0001796,43.0039,194.9999,280.0026,80.0623,0,U,56140,999,18040,.16673E-4,.196E-5,0
STARLINK-5377,2023-046BB,2026-07-06T17:07:53.036256,15.27571123,.0001309,43.0006,194.7720,270.4718,89.5983,0,U,56141,999,18040,-.17123E-4,-.733E-5,0
STARLINK-5376,2023-046BC,2026-07-06T11:53:57.791328,15.27574989,.0001469,43.0019,195.7228,272.4897,87.5786,0,U,56142,999,18037,-.63923E-4,-.202E-4,0
STARLINK-5016,2023-046BD,2026-07-06T03:04:04.651968,15.17937594,.0002357,42.9968,209.2023,45.5699,314.5342,0,U,56143,999,18018,.10842979E-2,.22252E-3,0
STARLINK-5374,2023-046BE,2026-07-06T16:56:45.818304,15.27577602,.0001429,43.0017,194.7120,268.3920,91.6768,0,U,56144,999,18040,-.18227E-4,-.764E-5,0
STARLINK-5111,2023-046BG,2026-07-06T17:13:25.010112,15.27575819,.0001372,43.0007,194.8019,267.3139,92.7556,0,U,56146,999,18040,-.38243E-4,-.1314E-4,0
STARLINK-5089,2023-046BJ,2026-07-06T09:01:24.062016,15.27564141,.0001606,43.0036,160.0138,280.2508,79.8163,0,U,56148,999,18077,-.58264E-4,-.1864E-4,0
PIESAT A,2023-047A,2026-07-06T07:37:41.934144,15.14291676,.0002329,97.5035,14.1809,71.6435,288.5050,0,U,56153,999,18069,.21107E-3,.3797E-4,0
PIESAT B,2023-047B,2026-07-06T10:48:00.275616,15.14291836,.0001542,97.5011,14.3118,96.4031,263.7377,0,U,56154,999,18071,.19938E-3,.3584E-4,0
PIESAT C,2023-047C,2026-07-06T10:48:00.226368,15.14291287,.000171,97.5016,14.3127,86.4074,273.7354,0,U,56155,999,18071,.10026E-3,.1769E-4,0
PIESAT D,2023-047D,2026-07-06T07:37:41.508192,15.14291518,.0001556,97.5048,14.1831,101.8689,258.2717,0,U,56156,999,18069,.17377E-3,.3115E-4,0
2023-048A,2023-048A,2026-07-06T20:36:40.211136,13.45392824,.0068877,63.4029,47.8275,355.5980,4.4432,0,U,56157,999,16058,.37083E-4,-.68E-6,0
CHECKMATE 8,2023-050A,2026-07-06T17:37:23.100960,13.84961574,.0005576,81.0009,53.0226,271.1454,88.9063,0,U,56162,999,16485,.53495E-4,.71E-6,0
CHECKMATE 5,2023-050B,2026-07-06T16:48:48.143808,13.84987642,.000547,81.0001,52.8423,268.5938,91.4592,0,U,56163,999,16486,.59823E-4,.79E-6,0
CHECKMATE 4,2023-050C,2026-07-06T17:30:31.606272,13.84817965,.0004804,81.0004,53.0982,287.1060,72.9570,0,U,56164,999,16484,.19622E-4,.33E-6,0
CHECKMATE 6,2023-050D,2026-07-06T16:23:47.669568,13.86710628,.0010832,81.0035,53.1086,256.9730,103.0218,0,U,56165,999,16480,.18194E-4,.32E-6,0
CHECKMATE 7,2023-050E,2026-07-06T17:24:48.136032,13.87622046,.0013675,80.9993,52.3311,260.5500,99.4112,0,U,56166,999,16482,.14428E-4,.28E-6,0
CHECKMATE 2,2023-050F,2026-07-06T16:59:43.579392,13.85164896,.0005961,81.0036,52.9760,263.8470,96.2007,0,U,56167,999,16481,.738E-4,.95E-6,0
CHECKMATE 1,2023-050G,2026-07-06T16:39:13.365216,13.84954880,.0010505,81.0033,53.2591,297.7887,62.2204,0,U,56168,999,16479,.12475E-4,.25E-6,0
CHECKMATE 3,2023-050H,2026-07-06T17:46:25.190112,13.85151609,.0005913,81.0019,52.6519,262.3550,97.6934,0,U,56169,999,16482,.21492E-4,.35E-6,0
BB 2,2023-050J,2026-07-06T19:39:52.914816,14.27151616,.0008789,81.0013,58.1296,233.2355,126.8019,0,U,56170,999,16448,.12095E-3,.307E-5,0
BB 1,2023-050K,2026-07-06T09:04:03.102816,13.92528230,.0014854,81.0013,62.1156,253.2968,106.6562,0,U,56171,999,16420,.16666E-3,.226E-5,0
INTELSAT 40E (IS-40E),2023-052A,2026-07-06T15:04:17.364864,1.00268864,.0002373,0.0152,45.8072,97.6398,276.2339,0,U,56174,999,1201,0,0,0
IMECE,2023-054A,2026-07-06T21:09:30.341088,14.65860960,.0010957,98.1210,92.4798,105.8894,254.3517,0,U,56178,999,17329,.57171E-4,.264E-5,0
GHGSAT-C8,2023-054J,2026-07-06T19:26:22.761888,15.53583178,.0004217,97.2960,97.3729,30.9935,329.1567,0,U,56186,999,18148,.21391E-3,.13531E-3,0
HAWK-7A,2023-054P,2026-07-06T18:19:27.435072,15.27572982,.00024,97.2674,74.6028,8.5213,351.6067,0,U,56191,999,18001,.18412E-3,.4892E-4,0
ION SCV-010,2023-054Q,2026-07-06T18:18:21.292416,15.26373536,.0014166,97.3750,77.0134,130.5192,229.7283,0,U,56192,999,17918,.16194E-3,.4149E-4,0
HAWK-7B,2023-054R,2026-07-06T18:19:21.109728,15.27575695,.0002252,97.2701,72.8737,31.9204,328.2172,0,U,56193,999,18001,.18418E-3,.4894E-4,0
HAWK-7C,2023-054Y,2026-07-06T18:19:11.400096,15.27574338,.0001922,97.2677,73.6361,19.6555,340.4758,0,U,56200,999,18001,.18249E-3,.4848E-4,0
NUSAT-39 (TIKVAH ALPER),2023-054Z,2026-07-06T20:04:38.070336,15.47694500,.0003194,97.3096,97.7802,4.2495,355.8782,0,U,56201,999,18149,.44818E-3,.23123E-3,0
NUSAT-38 (MARIA AGNESI),2023-054AA,2026-07-06T20:21:36.710784,15.50813232,.0010302,97.3035,98.4946,0.9832,359.1439,0,U,56202,999,18155,.48073E-3,.27744E-3,0
NUSAT-37 (JOAN CLARKE),2023-054AB,2026-07-06T19:44:29.795712,15.59024663,.0006618,97.2608,95.2919,168.5402,191.6006,0,U,56203,999,18170,.50815E-3,.39615E-3,0
GHGSAT-C6,2023-054AC,2026-07-06T20:10:18.119136,15.53562999,.0004407,97.3025,98.0999,350.1570,9.9596,0,U,56204,999,18150,.21609E-3,.13661E-3,0
GHGSAT-C7,2023-054AH,2026-07-06T19:42:57.161952,15.50318397,.000587,97.2978,96.4456,341.7310,18.3730,0,U,56209,999,18143,.16203E-3,.9092E-4,0
KEPLER-21,2023-054AS,2026-07-06T17:29:12.703200,16.23659537,.0007674,97.2776,109.8411,188.7737,171.3421,0,U,56218,999,18236,.56723E-3,.1427654E-1,.23843E-5
AAC-HSI-SAT1,2023-054AZ,2026-07-06T21:03:46.349856,15.12600868,.001138,97.3663,63.5706,61.9729,298.2652,0,U,56225,999,17834,.11514E-3,.195E-4,0
FENGYUN 3G,2023-055A,2026-07-06T17:31:34.820832,15.53524884,.0007242,49.9914,245.2605,18.4908,341.6321,0,U,56232,999,18304,.25816E-3,.16319E-3,0
STARLINK-30107,2023-056B,2026-07-06T04:52:46.879968,15.27569318,.00018879,43.0052,241.8551,280.2153,79.8485,0,U,56287,999,17842,-.13534184E-3,-.3984E-4,0
STARLINK-30106,2023-056C,2026-07-06T06:10:39.741024,15.27564108,.00010999,43.0033,259.2998,251.9184,108.1548,0,U,56288,999,17817,-.82674054E-4,-.2535E-4,0
STARLINK-30095,2023-056D,2026-07-06T14:33:36.332064,15.27553631,.0001261,43.0002,231.4545,264.2725,95.7983,0,U,56289,999,17852,-.14843E-3,-.4341E-4,0
STARLINK-30103,2023-056E,2026-07-06T15:41:08.628576,15.27562459,.0000826,43.0006,257.1042,305.5633,54.5141,0,U,56290,999,17823,.57302E-4,.1314E-4,0
STARLINK-30113,2023-056F,2026-07-06T06:05:06.599904,15.27561975,.00013926,43.0020,259.2595,247.4400,112.6304,0,U,56291,999,17817,-.10350576E-3,-.3108E-4,0
STARLINK-30098,2023-056G,2026-07-06T15:46:40.263744,15.27565986,.000119,43.0010,257.1203,261.8560,98.2156,0,U,56292,999,17823,-.13934E-3,-.4093E-4,0
STARLINK-30049,2023-056J,2026-07-06T05:07:55.934112,15.27548434,.00061992,43.0011,259.7501,134.4398,225.6962,0,U,56294,999,17816,-.2751718E-3,-.7826E-4,0
STARLINK-30083,2023-056K,2026-07-06T04:50:20.949504,15.27544734,.00015843,43.0010,234.4216,274.2811,85.7859,0,U,56295,999,17844,.3567705E-3,.9558E-4,0
STARLINK-30089,2023-056L,2026-07-06T03:35:25.653408,15.27563897,.00012858,43.0036,220.1390,257.0677,103.0031,0,U,56296,999,17861,-.17678281E-3,-.5121E-4,0
STARLINK-30086,2023-056M,2026-07-06T06:34:42.036960,15.27558923,.000196,43.0003,259.3373,286.2659,73.7977,0,U,56297,999,17817,-.10172105E-3,-.3059E-4,0
STARLINK-30109,2023-056N,2026-07-06T05:57:42.184224,15.27548714,.00015842,43.0020,259.1528,268.3570,91.7100,0,U,56298,999,17823,-.1387743E-3,-.4075E-4,0
STARLINK-30108,2023-056P,2026-07-05T21:04:14.107584,15.27550086,.00013997,43.0010,250.2445,270.5913,89.4778,0,U,56299,999,17830,-.14952017E-3,-.437E-4,0
STARLINK-30104,2023-056Q,2026-07-06T06:31:01.813728,15.27554530,.00032987,43.0070,259.4038,296.0920,63.9592,0,U,56300,999,17823,-.13793107E-3,-.4054E-4,0
STARLINK-30101,2023-056R,2026-07-05T05:30:41.105088,15.29128565,.0000707,43.0002,264.4685,7.8957,352.1906,0,U,56301,999,17808,.11699E-2,.33646E-3,0
STARLINK-30111,2023-056S,2026-07-06T10:27:12.040992,15.27568729,.0001613,42.9987,257.9749,226.0552,134.0166,0,U,56302,999,17826,.87762E-3,.23958E-3,0
